ONEWEB-0050             
1 45453U 20020AF  26036.05009750  .00002837  00000+0  29310-3 0  9995
2 45453  88.9192 251.2259 0005820  89.2242 270.9654 14.89871443320702
ONEWEB-0034             
1 45454U 20020AG  26035.97947943 -.00000474  00000+0 -13723-2 0  9998
2 45454  87.8823  47.3614 0001824  90.2910 269.8427 13.11419498285263
ONEWEB-0060             
1 45455U 20020AH  26036.02697132  .00000338  00000+0  91787-3 0  9992
2 45455  87.8810  47.3655 0001108  59.0734 301.0503 13.11415921285224
ONEWEB-0086             
1 45456U 20020AJ  26035.92948219  .00000321  00000+0  87108-3 0  9990
2 45456  87.8827  47.3693 0001051 103.1796 256.9450 13.11417306285274
ONEWEB-0088             
1 45457U 20020AK  26035.98372686 -.00000434  00000+0 -12610-2 0  9998
2 45457  87.8833  47.3198 0002035  83.9526 276.1834 13.11417905285210
ONEWEB-0102             
1 47258U 20100A   26036.16743692  .00000491  00000+0  13294-2 0  9998
2 47258  87.8949  16.8874 0001601  88.0489 272.0823 13.12442651247413
ONEWEB-0109             
1 47259U 20100B   26035.94718959  .00000152  00000+0  38655-3 0  9995
2 47259  87.8952  16.9033 0001813  89.6004 270.5332 13.12442178247211
ONEWEB-0110             
1 47260U 20100C   26036.20300670 -.00000308  00000+0 -89265-3 0  9992
2 47260  87.8951  16.8372 0001588  83.4368 276.6941 13.12443133247418
ONEWEB-0111             
1 47261U 20100D   26036.23349678  .00000440  00000+0  11871-2 0  9999
2 47261  87.8952  16.8497 0001747  81.0337 279.0990 13.12442295247256
ONEWEB-0114             
1 47262U 20100E   26036.18777026 -.00000253  00000+0 -73979-3 0  9998
2 47262  87.8953  16.8538 0002027  90.5994 269.5367 13.12443343247202
ONEWEB-0117             
1 47263U 20100F   26035.95057984  .00000015  00000+0  50530-5 0  9991
2 47263  87.8950  16.8967 0001767  86.6267 273.5064 13.12442288247188
ONEWEB-0118             
1 47264U 20100G   26035.98445782 -.00000187  00000+0 -55457-3 0  9995
2 47264  87.8950  16.8909 0002140  86.8819 273.2555 13.12445607247388
ONEWEB-0119             
1 47265U 20100H   26036.23859151  .00000419  00000+0  11301-2 0  9999
2 47265  87.8946  16.8695 0001817  85.3348 274.7988 13.12441989247393
ONEWEB-0120             
1 47266U 20100J   26035.95749123 -.00000225  00000+0 -66094-3 0  9992
2 47266  87.8943  16.9264 0001866  88.2817 271.8526 13.12442550247381
ONEWEB-0121             
1 47267U 20100K   26036.17421047  .00000151  00000+0  38507-3 0  9994
2 47267  87.8956  16.8562 0001605  82.2221 277.9089 13.12442068247329
ONEWEB-0122             
1 47268U 20100L   26035.93956817  .00000320  00000+0  85522-3 0  9993
2 47268  87.8954  16.9049 0001695  88.6526 271.4797 13.12441394247209
ONEWEB-0123             
1 47269U 20100M   26036.16404735  .00000404  00000+0  10882-2 0  9996
2 47269  87.8947  16.8830 0001889  84.1916 275.9428 13.12442209247372
