[{"OBJECT_NAME":"ONEWEB-0050","OBJECT_ID":"2020-020AF","EPOCH":"2026-02-05T01:12:08.424000","MEAN_MOTION":14.89871443,"ECCENTRICITY":0.00058204,"INCLINATION":88.9192,"RA_OF_ASC_NODE":251.2259,"ARG_OF_PERICENTER":89.2242,"MEAN_ANOMALY":270.9654,"EPHEMERIS_TYPE":0,"CLASSIFICATION_TYPE":"U","NORAD_CAT_ID":45453,"ELEMENT_SET_NO":999,"REV_AT_EPOCH":32070,"BSTAR":0.0002931045,"MEAN_MOTION_DOT":2.837e-5,"MEAN_MOTION_DDOT":0},{"OBJECT_NAME":"ONEWEB-0034","OBJECT_ID":"2020-020AG","EPOCH":"2026-02-04T23:30:27.022752","MEAN_MOTION":13.11419498,"ECCENTRICITY":0.00018248,"INCLINATION":87.8823,"RA_OF_ASC_NODE":47.3614,"ARG_OF_PERICENTER":90.291,"MEAN_ANOMALY":269.8427,"EPHEMERIS_TYPE":0,"CLASSIFICATION_TYPE":"U","NORAD_CAT_ID":45454,"ELEMENT_SET_NO":999,"REV_AT_EPOCH":28526,"BSTAR":-0.00137235,"MEAN_MOTION_DOT":-4.74e-6,"MEAN_MOTION_DDOT":0},{"OBJECT_NAME":"ONEWEB-0060","OBJECT_ID":"2020-020AH","EPOCH":"2026-02-05T00:38:50.322048","MEAN_MOTION":13.11415921,"ECCENTRICITY":0.00011088,"INCLINATION":87.881,"RA_OF_ASC_NODE":47.3655,"ARG_OF_PERICENTER":59.0734,"MEAN_ANOMALY":301.0503,"EPHEMERIS_TYPE":0,"CLASSIFICATION_TYPE":"U","NORAD_CAT_ID":45455,"ELEMENT_SET_NO":999,"REV_AT_EPOCH":28522,"BSTAR":0.00091787455,"MEAN_MOTION_DOT":3.38e-6,"MEAN_MOTION_DDOT":0},{"OBJECT_NAME":"ONEWEB-0086","OBJECT_ID":"2020-020AJ","EPOCH":"2026-02-04T22:18:27.261216","MEAN_MOTION":13.11417306,"ECCENTRICITY":0.00010515,"INCLINATION":87.8827,"RA_OF_ASC_NODE":47.3693,"ARG_OF_PERICENTER":103.1796,"MEAN_ANOMALY":256.945,"EPHEMERIS_TYPE":0,"CLASSIFICATION_TYPE":"U","NORAD_CAT_ID":45456,"ELEMENT_SET_NO":999,"REV_AT_EPOCH":28527,"BSTAR":0.00087108126,"MEAN_MOTION_DOT":3.21e-6,"MEAN_MOTION_DDOT":0},{"OBJECT_NAME":"ONEWEB-0088","OBJECT_ID":"2020-020AK","EPOCH":"2026-02-04T23:36:34.000704","MEAN_MOTION":13.11417905,"ECCENTRICITY":0.0002035,"INCLINATION":87.8833,"RA_OF_ASC_NODE":47.3198,"ARG_OF_PERICENTER":83.9526,"MEAN_ANOMALY":276.1834,"EPHEMERIS_TYPE":0,"CLASSIFICATION_TYPE":"U","NORAD_CAT_ID":45457,"ELEMENT_SET_NO":999,"REV_AT_EPOCH":28521,"BSTAR":-0.0012609743,"MEAN_MOTION_DOT":-4.34e-6,"MEAN_MOTION_DDOT":0},{"OBJECT_NAME":"ONEWEB-0102","OBJECT_ID":"2020-100A","EPOCH":"2026-02-05T04:01:06.549888","MEAN_MOTION":13.12442651,"ECCENTRICITY":0.00016017,"INCLINATION":87.8949,"RA_OF_ASC_NODE":16.8874,"ARG_OF_PERICENTER":88.0489,"MEAN_ANOMALY":272.0823,"EPHEMERIS_TYPE":0,"CLASSIFICATION_TYPE":"U","NORAD_CAT_ID":47258,"ELEMENT_SET_NO":999,"REV_AT_EPOCH":24741,"BSTAR":0.0013293769,"MEAN_MOTION_DOT":4.91e-6,"MEAN_MOTION_DDOT":0},{"OBJECT_NAME":"ONEWEB-0109","OBJECT_ID":"2020-100B","EPOCH":"2026-02-04T22:43:57.180576","MEAN_MOTION":13.12442178,"ECCENTRICITY":0.00018134,"INCLINATION":87.8952,"RA_OF_ASC_NODE":16.9033,"ARG_OF_PERICENTER":89.6004,"MEAN_ANOMALY":270.5332,"EPHEMERIS_TYPE":0,"CLASSIFICATION_TYPE":"U","NORAD_CAT_ID":47259,"ELEMENT_SET_NO":999,"REV_AT_EPOCH":24721,"BSTAR":0.00038654634,"MEAN_MOTION_DOT":1.52e-6,"MEAN_MOTION_DDOT":0},{"OBJECT_NAME":"ONEWEB-0110","OBJECT_ID":"2020-100C","EPOCH":"2026-02-05T04:52:19.778880","MEAN_MOTION":13.12443133,"ECCENTRICITY":0.00015888,"INCLINATION":87.8951,"RA_OF_ASC_NODE":16.8372,"ARG_OF_PERICENTER":83.4368,"MEAN_ANOMALY":276.6941,"EPHEMERIS_TYPE":0,"CLASSIFICATION_TYPE":"U","NORAD_CAT_ID":47260,"ELEMENT_SET_NO":999,"REV_AT_EPOCH":24741,"BSTAR":-0.00089265106,"MEAN_MOTION_DOT":-3.08e-6,"MEAN_MOTION_DDOT":0},{"OBJECT_NAME":"ONEWEB-0111","OBJECT_ID":"2020-100D","EPOCH":"2026-02-05T05:36:14.121792","MEAN_MOTION":13.12442295,"ECCENTRICITY":0.0001747,"INCLINATION":87.8952,"RA_OF_ASC_NODE":16.8497,"ARG_OF_PERICENTER":81.0337,"MEAN_ANOMALY":279.099,"EPHEMERIS_TYPE":0,"CLASSIFICATION_TYPE":"U","NORAD_CAT_ID":47261,"ELEMENT_SET_NO":999,"REV_AT_EPOCH":24725,"BSTAR":0.0011870824,"MEAN_MOTION_DOT":4.4e-6,"MEAN_MOTION_DDOT":0},{"OBJECT_NAME":"ONEWEB-0114","OBJECT_ID":"2020-100E","EPOCH":"2026-02-05T04:30:23.350464","MEAN_MOTION":13.12443343,"ECCENTRICITY":0.00020274,"INCLINATION":87.8953,"RA_OF_ASC_NODE":16.8538,"ARG_OF_PERICENTER":90.5994,"MEAN_ANOMALY":269.5367,"EPHEMERIS_TYPE":0,"CLASSIFICATION_TYPE":"U","NORAD_CAT_ID":47262,"ELEMENT_SET_NO":999,"REV_AT_EPOCH":24720,"BSTAR":-0.00073978709,"MEAN_MOTION_DOT":-2.53e-6,"MEAN_MOTION_DDOT":0},{"OBJECT_NAME":"ONEWEB-0117","OBJECT_ID":"2020-100F","EPOCH":"2026-02-04T22:48:50.098176","MEAN_MOTION":13.12442288,"ECCENTRICITY":0.00017676,"INCLINATION":87.895,"RA_OF_ASC_NODE":16.8967,"ARG_OF_PERICENTER":86.6267,"MEAN_ANOMALY":273.5064,"EPHEMERIS_TYPE":0,"CLASSIFICATION_TYPE":"U","NORAD_CAT_ID":47263,"ELEMENT_SET_NO":999,"REV_AT_EPOCH":24718,"BSTAR":5.053007e-6,"MEAN_MOTION_DOT":1.5e-7,"MEAN_MOTION_DDOT":0},{"OBJECT_NAME":"ONEWEB-0118","OBJECT_ID":"2020-100G","EPOCH":"2026-02-04T23:37:37.155648","MEAN_MOTION":13.12445607,"ECCENTRICITY":0.00021403,"INCLINATION":87.895,"RA_OF_ASC_NODE":16.8909,"ARG_OF_PERICENTER":86.8819,"MEAN_ANOMALY":273.2555,"EPHEMERIS_TYPE":0,"CLASSIFICATION_TYPE":"U","NORAD_CAT_ID":47264,"ELEMENT_SET_NO":999,"REV_AT_EPOCH":24738,"BSTAR":-0.00055457476,"MEAN_MOTION_DOT":-1.87e-6,"MEAN_MOTION_DDOT":0},{"OBJECT_NAME":"ONEWEB-0119","OBJECT_ID":"2020-100H","EPOCH":"2026-02-05T05:43:34.306464","MEAN_MOTION":13.12441989,"ECCENTRICITY":0.00018174,"INCLINATION":87.8946,"RA_OF_ASC_NODE":16.8695,"ARG_OF_PERICENTER":85.3348,"MEAN_ANOMALY":274.7988,"EPHEMERIS_TYPE":0,"CLASSIFICATION_TYPE":"U","NORAD_CAT_ID":47265,"ELEMENT_SET_NO":999,"REV_AT_EPOCH":24739,"BSTAR":0.0011301205,"MEAN_MOTION_DOT":4.19e-6,"MEAN_MOTION_DDOT":0},{"OBJECT_NAME":"ONEWEB-0120","OBJECT_ID":"2020-100J","EPOCH":"2026-02-04T22:58:47.242272","MEAN_MOTION":13.1244255,"ECCENTRICITY":0.0001866,"INCLINATION":87.8943,"RA_OF_ASC_NODE":16.9264,"ARG_OF_PERICENTER":88.2817,"MEAN_ANOMALY":271.8526,"EPHEMERIS_TYPE":0,"CLASSIFICATION_TYPE":"U","NORAD_CAT_ID":47266,"ELEMENT_SET_NO":999,"REV_AT_EPOCH":24738,"BSTAR":-0.00066093518,"MEAN_MOTION_DOT":-2.25e-6,"MEAN_MOTION_DDOT":0},{"OBJECT_NAME":"ONEWEB-0121","OBJECT_ID":"2020-100K","EPOCH":"2026-02-05T04:10:51.784608","MEAN_MOTION":13.12442068,"ECCENTRICITY":0.00016057,"INCLINATION":87.8956,"RA_OF_ASC_NODE":16.8562,"ARG_OF_PERICENTER":82.2221,"MEAN_ANOMALY":277.9089,"EPHEMERIS_TYPE":0,"CLASSIFICATION_TYPE":"U","NORAD_CAT_ID":47267,"ELEMENT_SET_NO":999,"REV_AT_EPOCH":24732,"BSTAR":0.0003850693,"MEAN_MOTION_DOT":1.51e-6,"MEAN_MOTION_DDOT":0},{"OBJECT_NAME":"ONEWEB-0122","OBJECT_ID":"2020-100L","EPOCH":"2026-02-04T22:32:58.689888","MEAN_MOTION":13.12441394,"ECCENTRICITY":0.00016959,"INCLINATION":87.8954,"RA_OF_ASC_NODE":16.9049,"ARG_OF_PERICENTER":88.6526,"MEAN_ANOMALY":271.4797,"EPHEMERIS_TYPE":0,"CLASSIFICATION_TYPE":"U","NORAD_CAT_ID":47268,"ELEMENT_SET_NO":999,"REV_AT_EPOCH":24720,"BSTAR":0.00085521657,"MEAN_MOTION_DOT":3.2e-6,"MEAN_MOTION_DDOT":0},{"OBJECT_NAME":"ONEWEB-0123","OBJECT_ID":"2020-100M","EPOCH":"2026-02-05T03:56:13.691040","MEAN_MOTION":13.12442209,"ECCENTRICITY":0.00018894,"INCLINATION":87.8947,"RA_OF_ASC_NODE":16.883,"ARG_OF_PERICENTER":84.1916,"MEAN_ANOMALY":275.9428,"EPHEMERIS_TYPE":0,"CLASSIFICATION_TYPE":"U","NORAD_CAT_ID":47269,"ELEMENT_SET_NO":999,"REV_AT_EPOCH":24737,"BSTAR":0.001088179,"MEAN_MOTION_DOT":4.04e-6,"MEAN_MOTION_DDOT":0}]
